[{"OBJECT_NAME":"STARLINK-5916","OBJECT_ID":"2023-042C","EPOCH":"2026-03-09T07:13:47.626752","MEAN_MOTION":15.02535484,"ECCENTRICITY":0.00012199,"INCLINATION":43.004,"RA_OF_ASC_NODE":58.0864,"ARG_OF_PERICENTER":268.8318,"MEAN_ANOMALY":91.2385,"EPHEMERIS_TYPE":0,"CLASSIFICATION_TYPE":"U","NORAD_CAT_ID":55988,"ELEMENT_SET_NO":999,"REV_AT_EPOCH":16285,"BSTAR":3.2637134e-5,"MEAN_MOTION_DOT":2.37e-6,"MEAN_MOTION_DDOT":0},{"OBJECT_NAME":"CZ-6A DEB","OBJECT_ID":"2022-151KB","EPOCH":"2026-03-09T19:20:41.637408","MEAN_MOTION":14.94061736,"ECCENTRICITY":0.0071589,"INCLINATION":98.7004,"RA_OF_ASC_NODE":166.2159,"ARG_OF_PERICENTER":166.3306,"MEAN_ANOMALY":193.9872,"EPHEMERIS_TYPE":0,"CLASSIFICATION_TYPE":"U","NORAD_CAT_ID":54523,"ELEMENT_SET_NO":999,"REV_AT_EPOCH":17710,"BSTAR":0.0044467837,"MEAN_MOTION_DOT":0.00050189,"MEAN_MOTION_DDOT":0}]
